{"type": "FeatureCollection", "features": [ {"type": "Feature", "properties": {"norad_id": 31010, "name": "FENGYUN 1C DEB", "group": "fengyun-1c-debris", "lat": -47.48894081341806, "lon": 149.1476743829296, "alt_km": 748.4001886065071, "timestamp": "2025-12-14T11:29:50.340418+00:00", "meta": {"OBJECT_NAME": "FENGYUN 1C DEB", "OBJECT_ID": "1999-025BDC", "EPOCH": "2025-12-13T08:46:34.415040", "MEAN_MOTION": 14.25824069, "ECCENTRICITY": 0.01132946, "INCLINATION": 101.7244, "RA_OF_ASC_NODE": 134.5693, "ARG_OF_PERICENTER": 352.8328, "MEAN_ANOMALY": 7.1217, "EPHEMERIS_TYPE": 0, "CLASSIFICATION_TYPE": "U", "NORAD_CAT_ID": 31010, "ELEMENT_SET_NO": 999, "REV_AT_EPOCH": 95638, "BSTAR": 0.0055012585, "MEAN_MOTION_DOT": 0.00013958, "MEAN_MOTION_DDOT": 0}, "tle": {"line1": "1 31010U 99025BDC 25347.36567610  .00013958  00000+0  55013-2 0  9996", "line2": "2 31010 101.7244 134.5693 0113294 352.8328   7.1217 14.25824069956388"}}, "geometry": {"type": "Point", "coordinates": [149.1476743829296, -47.48894081341806]}}, {"type": "Feature", "properties": {"norad_id": 31012, "name": "FENGYUN 1C DEB", "group": "fengyun-1c-debris", "lat": 65.55890437633083, "lon": -133.58236529781476, "alt_km": 850.806692195416, "timestamp": "2025-12-14T11:29:50.340429+00:00", "meta": {"OBJECT_NAME": "FENGYUN 1C DEB", "OBJECT_ID": "1999-025BDE", "EPOCH": "2025-12-13T16:56:46.621824", "MEAN_MOTION": 14.27864231, "ECCENTRICITY": 0.00813133, "INCLINATION": 98.9115, "RA_OF_ASC_NODE": 245.8252, "ARG_OF_PERICENTER": 248.5849, "MEAN_ANOMALY": 167.6075, "EPHEMERIS_TYPE": 0, "CLASSIFICATION_TYPE": "U", "NORAD_CAT_ID": 31012, "ELEMENT_SET_NO": 999, "REV_AT_EPOCH": 97761, "BSTAR": 0.00026684494, "MEAN_MOTION_DOT": 6.37e-06, "MEAN_MOTION_DDOT": 0}, "tle": {"line1": "1 31012U 99025BDE 25347.70609516  .00000637  00000+0  26684-3 0  9991", "line2": "2 31012  98.9115 245.8252 0081313 248.5849 167.6075 14.27864231977616"}}, "geometry": {"type": "Point", "coordinates": [-133.58236529781476, 65.55890437633083]}}, {"type": "Feature", "properties": {"norad_id": 31014, "name": "FENGYUN 1C DEB", "group": "fengyun-1c-debris", "lat": 39.95541462126321, "lon": 151.54828587258777, "alt_km": 853.75877680959, "timestamp": "2025-12-14T11:29:50.340439+00:00", "meta": {"OBJECT_NAME": "FENGYUN 1C DEB", "OBJECT_ID": "1999-025BDG", "EPOCH": "2025-12-13T16:48:55.532736", "MEAN_MOTION": 13.98491874, "ECCENTRICITY": 0.00878241, "INCLINATION": 98.8692, "RA_OF_ASC_NODE": 323.279, "ARG_OF_PERICENTER": 190.7267, "MEAN_ANOMALY": 352.5913, "EPHEMERIS_TYPE": 0, "CLASSIFICATION_TYPE": "U", "NORAD_CAT_ID": 31014, "ELEMENT_SET_NO": 999, "REV_AT_EPOCH": 95849, "BSTAR": 0.00026608843, "MEAN_MOTION_DOT": 3.51e-06, "MEAN_MOTION_DDOT": 0}, "tle": {"line1": "1 31014U 99025BDG 25347.70064274  .00000351  00000+0  26609-3 0  9999", "line2": "2 31014  98.8692 323.2790 0087824 190.7267 352.5913 13.98491874958497"}}, "geometry": {"type": "Point", "coordinates": [151.54828587258777, 39.95541462126321]}}, {"type": "Feature", "properties": {"norad_id": 31016, "name": "FENGYUN 1C DEB", "group": "fengyun-1c-debris", "lat": 80.76549390809771, "lon": -109.84595008398813, "alt_km": 862.6048008391244, "timestamp": "2025-12-14T11:29:50.340449+00:00", "meta": {"OBJECT_NAME": "FENGYUN 1C DEB", "OBJECT_ID": "1999-025BDJ", "EPOCH": "2025-12-12T21:01:11.154720", "MEAN_MOTION": 14.30494708, "ECCENTRICITY": 0.01119425, "INCLINATION": 98.4364, "RA_OF_ASC_NODE": 2.6981, "ARG_OF_PERICENTER": 273.7537, "MEAN_ANOMALY": 208.5383, "EPHEMERIS_TYPE": 0, "CLASSIFICATION_TYPE": "U", "NORAD_CAT_ID": 31016, "ELEMENT_SET_NO": 999, "REV_AT_EPOCH": 97472, "BSTAR": 0.00043051264, "MEAN_MOTION_DOT": 1.156e-05, "MEAN_MOTION_DDOT": 0}, "tle": {"line1": "1 31016U 99025BDJ 25346.87582355  .00001156  00000+0  43051-3 0  9997", "line2": "2 31016  98.4364   2.6981 0111942 273.7537 208.5383 14.30494708974723"}}, "geometry": {"type": "Point", "coordinates": [-109.84595008398813, 80.76549390809771]}}, {"type": "Feature", "properties": {"norad_id": 31017, "name": "FENGYUN 1C DEB", "group": "fengyun-1c-debris", "lat": -62.40119455371743, "lon": -8.468069715079139, "alt_km": 816.1188146271388, "timestamp": "2025-12-14T11:29:50.340459+00:00", "meta": {"OBJECT_NAME": "FENGYUN 1C DEB", "OBJECT_ID": "1999-025BDK", "EPOCH": "2025-12-13T10:56:37.115232", "MEAN_MOTION": 14.08824645, "ECCENTRICITY": 0.01131262, "INCLINATION": 98.6789, "RA_OF_ASC_NODE": 333.5582, "ARG_OF_PERICENTER": 348.1189, "MEAN_ANOMALY": 163.3274, "EPHEMERIS_TYPE": 0, "CLASSIFICATION_TYPE": "U", "NORAD_CAT_ID": 31017, "ELEMENT_SET_NO": 999, "REV_AT_EPOCH": 96306, "BSTAR": 0.00061502118, "MEAN_MOTION_DOT": 1.083e-05, "MEAN_MOTION_DDOT": 0}, "tle": {"line1": "1 31017U 99025BDK 25347.45598513  .00001083  00000+0  61502-3 0  9996", "line2": "2 31017  98.6789 333.5582 0113126 348.1189 163.3274 14.08824645963060"}}, "geometry": {"type": "Point", "coordinates": [-8.468069715079139, -62.40119455371743]}}, {"type": "Feature", "properties": {"norad_id": 31018, "name": "FENGYUN 1C DEB", "group": "fengyun-1c-debris", "lat": -31.060272935629715, "lon": -110.21811907513356, "alt_km": 841.6756707568911, "timestamp": "2025-12-14T11:29:50.340469+00:00", "meta": {"OBJECT_NAME": "FENGYUN 1C DEB", "OBJECT_ID": "1999-025BDL", "EPOCH": "2025-12-12T04:16:35.933952", "MEAN_MOTION": 14.16918127, "ECCENTRICITY": 0.00592617, "INCLINATION": 99.0248, "RA_OF_ASC_NODE": 72.941, "ARG_OF_PERICENTER": 127.5482, "MEAN_ANOMALY": 233.1097, "EPHEMERIS_TYPE": 0, "CLASSIFICATION_TYPE": "U", "NORAD_CAT_ID": 31018, "ELEMENT_SET_NO": 999, "REV_AT_EPOCH": 96047, "BSTAR": 0.0028141293, "MEAN_MOTION_DOT": 5.703e-05, "MEAN_MOTION_DDOT": 0}, "tle": {"line1": "1 31018U 99025BDL 25346.17819368  .00005703  00000+0  28141-2 0  9993", "line2": "2 31018  99.0248  72.9410 0059261 127.5482 233.1097 14.16918127960473"}}, "geometry": {"type": "Point", "coordinates": [-110.21811907513356, -31.060272935629715]}}, {"type": "Feature", "properties": {"norad_id": 31019, "name": "FENGYUN 1C DEB", "group": "fengyun-1c-debris", "lat": -5.998729774086776, "lon": 4.904637765939879, "alt_km": 1725.1805696873344, "timestamp": "2025-12-14T11:29:50.340479+00:00", "meta": {"OBJECT_NAME": "FENGYUN 1C DEB", "OBJECT_ID": "1999-025BDM", "EPOCH": "2025-12-12T19:52:43.836960", "MEAN_MOTION": 11.82976718, "ECCENTRICITY": 0.11186473, "INCLINATION": 98.6985, "RA_OF_ASC_NODE": 184.7395, "ARG_OF_PERICENTER": 283.3022, "MEAN_ANOMALY": 88.5044, "EPHEMERIS_TYPE": 0, "CLASSIFICATION_TYPE": "U", "NORAD_CAT_ID": 31019, "ELEMENT_SET_NO": 999, "REV_AT_EPOCH": 55182, "BSTAR": 0.0047599214, "MEAN_MOTION_DOT": 1.76e-05, "MEAN_MOTION_DDOT": 0}, "tle": {"line1": "1 31019U 99025BDM 25346.82828515  .00001760  00000+0  47599-2 0  9997", "line2": "2 31019  98.6985 184.7395 1118647 283.3022  88.5044 11.82976718551826"}}, "geometry": {"type": "Point", "coordinates": [4.904637765939879, -5.998729774086776]}}, {"type": "Feature", "properties": {"norad_id": 31021, "name": "FENGYUN 1C DEB", "group": "fengyun-1c-debris", "lat": 5.716203444470647, "lon": 98.17112238659384, "alt_km": 763.3304699251094, "timestamp": "2025-12-14T11:29:50.340489+00:00", "meta": {"OBJECT_NAME": "FENGYUN 1C DEB", "OBJECT_ID": "1999-025BDP", "EPOCH": "2025-12-13T01:17:09.630816", "MEAN_MOTION": 14.75252652, "ECCENTRICITY": 0.02680724, "INCLINATION": 98.347, "RA_OF_ASC_NODE": 97.5412, "ARG_OF_PERICENTER": 240.8677, "MEAN_ANOMALY": 116.5459, "EPHEMERIS_TYPE": 0, "CLASSIFICATION_TYPE": "U", "NORAD_CAT_ID": 31021, "ELEMENT_SET_NO": 999, "REV_AT_EPOCH": 73437, "BSTAR": 0.00086717941, "MEAN_MOTION_DOT": 0.00010523, "MEAN_MOTION_DDOT": 0}, "tle": {"line1": "1 31021U 99025BDP 25347.05358369  .00010523  00000+0  86718-3 0  9995", "line2": "2 31021  98.3470  97.5412 0268072 240.8677 116.5459 14.75252652734371"}}, "geometry": {"type": "Point", "coordinates": [98.17112238659384, 5.716203444470647]}}, {"type": "Feature", "properties": {"norad_id": 31022, "name": "FENGYUN 1C DEB", "group": "fengyun-1c-debris", "lat": 78.57161382987299, "lon": 176.0980265464723, "alt_km": 852.4606098131553, "timestamp": "2025-12-14T11:29:50.340499+00:00", "meta": {"OBJECT_NAME": "FENGYUN 1C DEB", "OBJECT_ID": "1999-025BDQ", "EPOCH": "2025-12-10T22:28:32.635776", "MEAN_MOTION": 13.90444509, "ECCENTRICITY": 0.0109902, "INCLINATION": 99.5166, "RA_OF_ASC_NODE": 228.551, "ARG_OF_PERICENTER": 126.6428, "MEAN_ANOMALY": 234.4895, "EPHEMERIS_TYPE": 0, "CLASSIFICATION_TYPE": "U", "NORAD_CAT_ID": 31022, "ELEMENT_SET_NO": 999, "REV_AT_EPOCH": 61983, "BSTAR": 0.00048646, "MEAN_MOTION_DOT": 5.89e-06, "MEAN_MOTION_DDOT": 0}, "tle": {"line1": "1 31022U 99025BDQ 25344.93648884  .00000589  00000+0  48646-3 0  9993", "line2": "2 31022  99.5166 228.5510 0109902 126.6428 234.4895 13.90444509619830"}}, "geometry": {"type": "Point", "coordinates": [176.0980265464723, 78.57161382987299]}}, {"type": "Feature", "properties": {"norad_id": 31024, "name": "FENGYUN 1C DEB", "group": "fengyun-1c-debris", "lat": 28.525664625361166, "lon": 86.82348237738782, "alt_km": 774.7362715779209, "timestamp": "2025-12-14T11:29:50.340530+00:00", "meta": {"OBJECT_NAME": "FENGYUN 1C DEB", "OBJECT_ID": "1999-025BDS", "EPOCH": "2025-12-12T13:09:46.197504", "MEAN_MOTION": 14.20858855, "ECCENTRICITY": 0.00751506, "INCLINATION": 99.0422, "RA_OF_ASC_NODE": 259.8834, "ARG_OF_PERICENTER": 125.1602, "MEAN_ANOMALY": 235.6644, "EPHEMERIS_TYPE": 0, "CLASSIFICATION_TYPE": "U", "NORAD_CAT_ID": 31024, "ELEMENT_SET_NO": 999, "REV_AT_EPOCH": 96701, "BSTAR": 0.00041566211, "MEAN_MOTION_DOT": 8.79e-06, "MEAN_MOTION_DDOT": 0}, "tle": {"line1": "1 31024U 99025BDS 25346.54845136  .00000879  00000+0  41566-3 0  9999", "line2": "2 31024  99.0422 259.8834 0075150 125.1602 235.6644 14.20858855967011"}}, "geometry": {"type": "Point", "coordinates": [86.82348237738782, 28.525664625361166]}}]}